{
    "links": {
        "self": "http://www.neowsapp.com/rest/v1/neo/3143086?api_key=iIulBulltgU6a56xZRHN4H3l9WmuAYTsLGpBGhQ2"
    },
    "id": "3143086",
    "neo_reference_id": "3143086",
    "name": "(2002 VZ91)",
    "designation": "2002 VZ91",
    "nasa_jpl_url": "http://ssd.jpl.nasa.gov/sbdb.cgi?sstr=3143086",
    "absolute_magnitude_h": 26.1,
    "estimated_diameter": {
        "kilometers": {
            "estimated_diameter_min": 0.0160160338,
            "estimated_diameter_max": 0.0358129403
        },
        "meters": {
            "estimated_diameter_min": 16.0160337979,
            "estimated_diameter_max": 35.8129403019
        },
        "miles": {
            "estimated_diameter_min": 0.0099518989,
            "estimated_diameter_max": 0.0222531225
        },
        "feet": {
            "estimated_diameter_min": 52.5460443254,
            "estimated_diameter_max": 117.4965270602
        }
    },
    "is_potentially_hazardous_asteroid": false,
    "close_approach_data": [
        {
            "close_approach_date": "1998-12-13",
            "close_approach_date_full": "1998-Dec-13 08:52",
            "epoch_date_close_approach": 913539120000,
            "relative_velocity": {
                "kilometers_per_second": "20.7679846697",
                "kilometers_per_hour": "74764.7448108059",
                "miles_per_hour": "46455.904907581"
            },
            "miss_distance": {
                "astronomical": "0.4636124973",
                "lunar": "180.3452614497",
                "kilometers": "69355442.101460751",
                "miles": "43095473.3581943238"
            },
            "orbiting_body": "Earth"
        },
        {
            "close_approach_date": "2000-11-30",
            "close_approach_date_full": "2000-Nov-30 01:00",
            "epoch_date_close_approach": 975546000000,
            "relative_velocity": {
                "kilometers_per_second": "13.7785689197",
                "kilometers_per_hour": "49602.84811096",
                "miles_per_hour": "30821.2808165018"
            },
            "miss_distance": {
                "astronomical": "0.2292443295",
                "lunar": "89.1760441755",
                "kilometers": "34294463.402778165",
                "miles": "21309591.419602077"
            },
            "orbiting_body": "Earth"
        },
        {
            "close_approach_date": "2002-11-07",
            "close_approach_date_full": "2002-Nov-07 05:54",
            "epoch_date_close_approach": 1036648440000,
            "relative_velocity": {
                "kilometers_per_second": "7.0434555295",
                "kilometers_per_hour": "25356.43990613",
                "miles_per_hour": "15755.5056738951"
            },
            "miss_distance": {
                "astronomical": "0.0116569805",
                "lunar": "4.5345654145",
                "kilometers": "1743859.453431535",
                "miles": "1083584.017903783"
            },
            "orbiting_body": "Earth"
        }
    ],
    "orbital_data": {
        "orbit_id": "8",
        "orbit_determination_date": "2017-04-06 09:14:37",
        "first_observation_date": "2002-11-12",
        "last_observation_date": "2002-11-28",
        "data_arc_in_days": 16,
        "observations_used": 26,
        "orbit_uncertainty": "8",
        "minimum_orbit_intersection": ".00787797",
        "jupiter_tisserand_invariant": "4.315",
        "epoch_osculation": "2452593.5",
        "eccentricity": ".3846317219661288",
        "semi_major_axis": "1.576604866954779",
        "inclination": "3.486180283701174",
        "ascending_node_longitude": "49.07032547734317",
        "orbital_period": "723.0739593305783",
        "perihelion_distance": ".9701926221177827",
        "perihelion_argument": "328.7596339963177",
        "aphelion_distance": "2.183017111791774",
        "perihelion_time": "2452563.570088394111",
        "mean_anomaly": "14.90133621752236",
        "mean_motion": ".4978743811121173",
        "equinox": "J2000",
        "orbit_class": {
            "orbit_class_type": "APO",
            "orbit_class_description": "Near-Earth asteroid orbits which cross the Earth’s orbit similar to that of 1862 Apollo",
            "orbit_class_range": "a (semi-major axis) > 1.0 AU; q (perihelion) < 1.017 AU"
        }
    },
    "is_sentry_object": false
}